[{"OBJECT_NAME":"FLOCK 4G-22","OBJECT_ID":"2025-009AN","EPOCH":"2026-03-09T22:51:40.689792","MEAN_MOTION":15.2720903,"ECCENTRICITY":8.959e-5,"INCLINATION":97.4046,"RA_OF_ASC_NODE":151.5884,"ARG_OF_PERICENTER":284.1963,"MEAN_ANOMALY":75.9176,"EPHEMERIS_TYPE":0,"CLASSIFICATION_TYPE":"U","NORAD_CAT_ID":62645,"ELEMENT_SET_NO":999,"REV_AT_EPOCH":6376,"BSTAR":0.00049035383,"MEAN_MOTION_DOT":0.00013013,"MEAN_MOTION_DDOT":0},{"OBJECT_NAME":"STARLINK-35589","OBJECT_ID":"2025-259E","EPOCH":"2026-03-09T13:48:33.310656","MEAN_MOTION":15.27585849,"ECCENTRICITY":0.0001843,"INCLINATION":42.9999,"RA_OF_ASC_NODE":275.0108,"ARG_OF_PERICENTER":261.7628,"MEAN_ANOMALY":98.3015,"EPHEMERIS_TYPE":0,"CLASSIFICATION_TYPE":"U","NORAD_CAT_ID":66426,"ELEMENT_SET_NO":999,"REV_AT_EPOCH":1947,"BSTAR":0.00089058,"MEAN_MOTION_DOT":0.0002433,"MEAN_MOTION_DDOT":0}]
